{"type": "FeatureCollection", "features": [ {"type": "Feature", "properties": {"norad_id": 30272, "name": "FENGYUN 1C DEB", "group": "fengyun-1c-debris", "lat": -74.63154596076488, "lon": -156.26556049444054, "alt_km": 885.9559934945282, "timestamp": "2025-12-16T19:34:24.542380+00:00", "meta": {"OBJECT_NAME": "FENGYUN 1C DEB", "OBJECT_ID": "1999-025YH", "EPOCH": "2025-12-15T15:12:20.498112", "MEAN_MOTION": 14.14725372, "ECCENTRICITY": 0.0050813, "INCLINATION": 98.9013, "RA_OF_ASC_NODE": 57.3195, "ARG_OF_PERICENTER": 95.746, "MEAN_ANOMALY": 264.951, "EPHEMERIS_TYPE": 0, "CLASSIFICATION_TYPE": "U", "NORAD_CAT_ID": 30272, "ELEMENT_SET_NO": 999, "REV_AT_EPOCH": 96897, "BSTAR": 0.0010034432, "MEAN_MOTION_DOT": 1.913e-05, "MEAN_MOTION_DDOT": 0}, "tle": {"line1": "1 30272U 99025YH  25349.63357058  .00001913  00000+0  10034-2 0  9992", "line2": "2 30272  98.9013  57.3195 0050813  95.7460 264.9510 14.14725372968976"}}, "geometry": {"type": "Point", "coordinates": [-156.26556049444054, -74.63154596076488]}}, {"type": "Feature", "properties": {"norad_id": 30273, "name": "FENGYUN 1C DEB", "group": "fengyun-1c-debris", "lat": 56.6452245768533, "lon": -8.417145640085787, "alt_km": 922.9778057257081, "timestamp": "2025-12-16T19:34:24.542390+00:00", "meta": {"OBJECT_NAME": "FENGYUN 1C DEB", "OBJECT_ID": "1999-025YJ", "EPOCH": "2025-12-15T20:11:09.163392", "MEAN_MOTION": 14.02664957, "ECCENTRICITY": 0.00604012, "INCLINATION": 98.8405, "RA_OF_ASC_NODE": 4.313, "ARG_OF_PERICENTER": 240.7436, "MEAN_ANOMALY": 298.987, "EPHEMERIS_TYPE": 0, "CLASSIFICATION_TYPE": "U", "NORAD_CAT_ID": 30273, "ELEMENT_SET_NO": 999, "REV_AT_EPOCH": 96572, "BSTAR": 0.00040784863, "MEAN_MOTION_DOT": 5.96e-06, "MEAN_MOTION_DDOT": 0}, "tle": {"line1": "1 30273U 99025YJ  25349.84107828  .00000596  00000+0  40785-3 0  9997", "line2": "2 30273  98.8405   4.3130 0060401 240.7436 298.9870 14.02664957965725"}}, "geometry": {"type": "Point", "coordinates": [-8.417145640085787, 56.6452245768533]}}, {"type": "Feature", "properties": {"norad_id": 30274, "name": "FENGYUN 1C DEB", "group": "fengyun-1c-debris", "lat": -58.69020678736944, "lon": -75.71006302219887, "alt_km": 724.4829240990648, "timestamp": "2025-12-16T19:34:24.542400+00:00", "meta": {"OBJECT_NAME": "FENGYUN 1C DEB", "OBJECT_ID": "1999-025YK", "EPOCH": "2025-12-15T14:25:06.055392", "MEAN_MOTION": 14.51692386, "ECCENTRICITY": 0.00048068, "INCLINATION": 99.3009, "RA_OF_ASC_NODE": 118.5771, "ARG_OF_PERICENTER": 204.7728, "MEAN_ANOMALY": 170.0382, "EPHEMERIS_TYPE": 0, "CLASSIFICATION_TYPE": "U", "NORAD_CAT_ID": 30274, "ELEMENT_SET_NO": 999, "REV_AT_EPOCH": 98252, "BSTAR": 0.0016255614, "MEAN_MOTION_DOT": 6.477e-05, "MEAN_MOTION_DDOT": 0}, "tle": {"line1": "1 30274U 99025YK  25349.60076453  .00006477  00000+0  16256-2 0  9990", "line2": "2 30274  99.3009 118.5771 0004806 204.7728 170.0382 14.51692386982528"}}, "geometry": {"type": "Point", "coordinates": [-75.71006302219887, -58.69020678736944]}}, {"type": "Feature", "properties": {"norad_id": 30275, "name": "FENGYUN 1C DEB", "group": "fengyun-1c-debris", "lat": 78.45043764773814, "lon": -56.86693852143639, "alt_km": 726.989228314218, "timestamp": "2025-12-16T19:34:24.542410+00:00", "meta": {"OBJECT_NAME": "FENGYUN 1C DEB", "OBJECT_ID": "1999-025YL", "EPOCH": "2025-12-15T18:46:18.968736", "MEAN_MOTION": 14.45342912, "ECCENTRICITY": 0.00398988, "INCLINATION": 98.6285, "RA_OF_ASC_NODE": 74.0917, "ARG_OF_PERICENTER": 177.7189, "MEAN_ANOMALY": 306.4908, "EPHEMERIS_TYPE": 0, "CLASSIFICATION_TYPE": "U", "NORAD_CAT_ID": 30275, "ELEMENT_SET_NO": 999, "REV_AT_EPOCH": 98128, "BSTAR": 0.001434065, "MEAN_MOTION_DOT": 5.045e-05, "MEAN_MOTION_DDOT": 0}, "tle": {"line1": "1 30275U 99025YL  25349.78216399  .00005045  00000+0  14341-2 0  9998", "line2": "2 30275  98.6285  74.0917 0039898 177.7189 306.4908 14.45342912981285"}}, "geometry": {"type": "Point", "coordinates": [-56.86693852143639, 78.45043764773814]}}, {"type": "Feature", "properties": {"norad_id": 30276, "name": "FENGYUN 1C DEB", "group": "fengyun-1c-debris", "lat": 46.75556072243469, "lon": -108.01612427625133, "alt_km": 786.645272230322, "timestamp": "2025-12-16T19:34:24.542421+00:00", "meta": {"OBJECT_NAME": "FENGYUN 1C DEB", "OBJECT_ID": "1999-025YM", "EPOCH": "2025-12-15T17:42:58.443552", "MEAN_MOTION": 14.27045693, "ECCENTRICITY": 0.0024709, "INCLINATION": 98.8596, "RA_OF_ASC_NODE": 61.3472, "ARG_OF_PERICENTER": 82.961, "MEAN_ANOMALY": 277.4379, "EPHEMERIS_TYPE": 0, "CLASSIFICATION_TYPE": "U", "NORAD_CAT_ID": 30276, "ELEMENT_SET_NO": 999, "REV_AT_EPOCH": 97573, "BSTAR": 0.00091999272, "MEAN_MOTION_DOT": 2.203e-05, "MEAN_MOTION_DDOT": 0}, "tle": {"line1": "1 30276U 99025YM  25349.73817643  .00002203  00000+0  91999-3 0  9991", "line2": "2 30276  98.8596  61.3472 0024709  82.9610 277.4379 14.27045693975737"}}, "geometry": {"type": "Point", "coordinates": [-108.01612427625133, 46.75556072243469]}}, {"type": "Feature", "properties": {"norad_id": 30277, "name": "FENGYUN 1C DEB", "group": "fengyun-1c-debris", "lat": 3.862284554605536, "lon": 60.8858545933978, "alt_km": 934.7837399579457, "timestamp": "2025-12-16T19:34:24.542431+00:00", "meta": {"OBJECT_NAME": "FENGYUN 1C DEB", "OBJECT_ID": "1999-025YN", "EPOCH": "2025-12-15T04:47:23.970336", "MEAN_MOTION": 14.1359397, "ECCENTRICITY": 0.01241134, "INCLINATION": 98.9733, "RA_OF_ASC_NODE": 59.8758, "ARG_OF_PERICENTER": 170.8776, "MEAN_ANOMALY": 254.5181, "EPHEMERIS_TYPE": 0, "CLASSIFICATION_TYPE": "U", "NORAD_CAT_ID": 30277, "ELEMENT_SET_NO": 999, "REV_AT_EPOCH": 96824, "BSTAR": 0.0010998265, "MEAN_MOTION_DOT": 2.188e-05, "MEAN_MOTION_DDOT": 0}, "tle": {"line1": "1 30277U 99025YN  25349.19958299  .00002188  00000+0  10998-2 0  9996", "line2": "2 30277  98.9733  59.8758 0124113 170.8776 254.5181 14.13593970968247"}}, "geometry": {"type": "Point", "coordinates": [60.8858545933978, 3.862284554605536]}}, {"type": "Feature", "properties": {"norad_id": 30279, "name": "FENGYUN 1C DEB", "group": "fengyun-1c-debris", "lat": -30.292539709451244, "lon": -68.90371650899094, "alt_km": 821.8729367757469, "timestamp": "2025-12-16T19:34:24.542441+00:00", "meta": {"OBJECT_NAME": "FENGYUN 1C DEB", "OBJECT_ID": "1999-025YQ", "EPOCH": "2025-12-15T18:33:11.655648", "MEAN_MOTION": 14.2311202, "ECCENTRICITY": 0.02198264, "INCLINATION": 99.1499, "RA_OF_ASC_NODE": 284.6099, "ARG_OF_PERICENTER": 64.0311, "MEAN_ANOMALY": 329.8513, "EPHEMERIS_TYPE": 0, "CLASSIFICATION_TYPE": "U", "NORAD_CAT_ID": 30279, "ELEMENT_SET_NO": 999, "REV_AT_EPOCH": 97654, "BSTAR": 0.00059862944, "MEAN_MOTION_DOT": 1.682e-05, "MEAN_MOTION_DDOT": 0}, "tle": {"line1": "1 30279U 99025YQ  25349.77305157  .00001682  00000+0  59863-3 0  9994", "line2": "2 30279  99.1499 284.6099 0219826  64.0311 329.8513 14.23112020976543"}}, "geometry": {"type": "Point", "coordinates": [-68.90371650899094, -30.292539709451244]}}, {"type": "Feature", "properties": {"norad_id": 30280, "name": "FENGYUN 1C DEB", "group": "fengyun-1c-debris", "lat": 77.93343718286215, "lon": -153.70690978868993, "alt_km": 936.9051560417865, "timestamp": "2025-12-16T19:34:24.542451+00:00", "meta": {"OBJECT_NAME": "FENGYUN 1C DEB", "OBJECT_ID": "1999-025YR", "EPOCH": "2025-12-15T22:45:36.713376", "MEAN_MOTION": 13.98331017, "ECCENTRICITY": 0.00803348, "INCLINATION": 98.775, "RA_OF_ASC_NODE": 339.1991, "ARG_OF_PERICENTER": 320.6261, "MEAN_ANOMALY": 93.9007, "EPHEMERIS_TYPE": 0, "CLASSIFICATION_TYPE": "U", "NORAD_CAT_ID": 30280, "ELEMENT_SET_NO": 999, "REV_AT_EPOCH": 96451, "BSTAR": 7.4158324e-05, "MEAN_MOTION_DOT": 6.6e-07, "MEAN_MOTION_DDOT": 0}, "tle": {"line1": "1 30280U 99025YR  25349.94834159  .00000066  00000+0  74158-4 0  9994", "line2": "2 30280  98.7750 339.1991 0080334 320.6261  93.9007 13.98331017964513"}}, "geometry": {"type": "Point", "coordinates": [-153.70690978868993, 77.93343718286215]}}, {"type": "Feature", "properties": {"norad_id": 30281, "name": "FENGYUN 1C DEB", "group": "fengyun-1c-debris", "lat": 42.334809005371625, "lon": 168.5938624421747, "alt_km": 853.5529991976146, "timestamp": "2025-12-16T19:34:24.542461+00:00", "meta": {"OBJECT_NAME": "FENGYUN 1C DEB", "OBJECT_ID": "1999-025YS", "EPOCH": "2025-12-15T22:45:11.941632", "MEAN_MOTION": 14.10477779, "ECCENTRICITY": 0.00280178, "INCLINATION": 98.757, "RA_OF_ASC_NODE": 339.6765, "ARG_OF_PERICENTER": 227.6991, "MEAN_ANOMALY": 187.0858, "EPHEMERIS_TYPE": 0, "CLASSIFICATION_TYPE": "U", "NORAD_CAT_ID": 30281, "ELEMENT_SET_NO": 999, "REV_AT_EPOCH": 97266, "BSTAR": 0.00019343308, "MEAN_MOTION_DOT": 3.02e-06, "MEAN_MOTION_DDOT": 0}, "tle": {"line1": "1 30281U 99025YS  25349.94805488  .00000302  00000+0  19343-3 0  9995", "line2": "2 30281  98.7570 339.6765 0028017 227.6991 187.0858 14.10477779972669"}}, "geometry": {"type": "Point", "coordinates": [168.5938624421747, 42.334809005371625]}}, {"type": "Feature", "properties": {"norad_id": 30282, "name": "FENGYUN 1C DEB", "group": "fengyun-1c-debris", "lat": -73.04682551034918, "lon": 23.253496511005906, "alt_km": 791.275912022672, "timestamp": "2025-12-16T19:34:24.542471+00:00", "meta": {"OBJECT_NAME": "FENGYUN 1C DEB", "OBJECT_ID": "1999-025YT", "EPOCH": "2025-12-15T22:09:30.237696", "MEAN_MOTION": 14.12979254, "ECCENTRICITY": 0.0210097, "INCLINATION": 98.5015, "RA_OF_ASC_NODE": 353.0212, "ARG_OF_PERICENTER": 352.9764, "MEAN_ANOMALY": 77.6504, "EPHEMERIS_TYPE": 0, "CLASSIFICATION_TYPE": "U", "NORAD_CAT_ID": 30282, "ELEMENT_SET_NO": 999, "REV_AT_EPOCH": 97396, "BSTAR": 0.00034590776, "MEAN_MOTION_DOT": 7.52e-06, "MEAN_MOTION_DDOT": 0}, "tle": {"line1": "1 30282U 99025YT  25349.92326664  .00000752  00000+0  34591-3 0  9999", "line2": "2 30282  98.5015 353.0212 0210097 352.9764  77.6504 14.12979254973963"}}, "geometry": {"type": "Point", "coordinates": [23.253496511005906, -73.04682551034918]}}]}